{"type": "FeatureCollection", "features": [{"type": "Feature", "properties": {"norad_id": 25590, "name": "COSMOS 2361", "group": "musson", "lat": -82.51067629843685, "lon": -132.6510956655579, "alt_km": 976.2652559920416, "timestamp": "2025-12-22T16:55:17.732803+00:00", "meta": {"OBJECT_NAME": "COSMOS 2361", "OBJECT_ID": "1998-076A", "EPOCH": "2025-12-22T07:27:14.182848", "MEAN_MOTION": 13.73218583, "ECCENTRICITY": 0.00302232, "INCLINATION": 82.9343, "RA_OF_ASC_NODE": 337.0072, "ARG_OF_PERICENTER": 237.877, "MEAN_ANOMALY": 240.3871, "EPHEMERIS_TYPE": 0, "CLASSIFICATION_TYPE": "U", "NORAD_CAT_ID": 25590, "ELEMENT_SET_NO": 999, "REV_AT_EPOCH": 35242, "BSTAR": 4.4054664e-05, "MEAN_MOTION_DOT": 5.6e-07, "MEAN_MOTION_DDOT": 0}, "tle": {"line1": "1 25590U 98076A   25356.31058082  .00000056  00000+0  44055-4 0  9991", "line2": "2 25590  82.9343 337.0072 0030223 237.8770 240.3871 13.73218583352420"}}, "geometry": {"type": "Point", "coordinates": [-132.6510956655579, -82.51067629843685]}}, {"type": "Feature", "properties": {"norad_id": 26818, "name": "COSMOS 2378", "group": "musson", "lat": 12.775599247480002, "lon": -6.051463192841813, "alt_km": 1009.1636990683719, "timestamp": "2025-12-22T16:55:17.732824+00:00", "meta": {"OBJECT_NAME": "COSMOS 2378", "OBJECT_ID": "2001-023A", "EPOCH": "2025-12-21T23:28:27.266304", "MEAN_MOTION": 13.74142721, "ECCENTRICITY": 0.00329772, "INCLINATION": 82.927, "RA_OF_ASC_NODE": 352.8742, "ARG_OF_PERICENTER": 178.9434, "MEAN_ANOMALY": 199.8985, "EPHEMERIS_TYPE": 0, "CLASSIFICATION_TYPE": "U", "NORAD_CAT_ID": 26818, "ELEMENT_SET_NO": 999, "REV_AT_EPOCH": 23050, "BSTAR": 2.6991008e-05, "MEAN_MOTION_DOT": 4.1e-07, "MEAN_MOTION_DDOT": 0}, "tle": {"line1": "1 26818U 01023A   25355.97809336  .00000041  00000+0  26991-4 0  9991", "line2": "2 26818  82.9270 352.8742 0032977 178.9434 199.8985 13.74142721230501"}}, "geometry": {"type": "Point", "coordinates": [-6.051463192841813, 12.775599247480002]}}, {"type": "Feature", "properties": {"norad_id": 27436, "name": "COSMOS 2389", "group": "musson", "lat": -74.3058908807608, "lon": 145.73374293870626, "alt_km": 1014.0681984810999, "timestamp": "2025-12-22T16:55:17.732838+00:00", "meta": {"OBJECT_NAME": "COSMOS 2389", "OBJECT_ID": "2002-026A", "EPOCH": "2025-12-22T03:30:33.446016", "MEAN_MOTION": 13.75155593, "ECCENTRICITY": 0.00472394, "INCLINATION": 82.9511, "RA_OF_ASC_NODE": 300.0214, "ARG_OF_PERICENTER": 35.0971, "MEAN_ANOMALY": 336.1418, "EPHEMERIS_TYPE": 0, "CLASSIFICATION_TYPE": "U", "NORAD_CAT_ID": 27436, "ELEMENT_SET_NO": 999, "REV_AT_EPOCH": 18278, "BSTAR": 4.9183719e-05, "MEAN_MOTION_DOT": 6.3e-07, "MEAN_MOTION_DDOT": 0}, "tle": {"line1": "1 27436U 02026A   25356.14622044  .00000063  00000+0  49184-4 0  9994", "line2": "2 27436  82.9511 300.0214 0047239  35.0971 336.1418 13.75155593182786"}}, "geometry": {"type": "Point", "coordinates": [145.73374293870626, -74.3058908807608]}}, {"type": "Feature", "properties": {"norad_id": 27818, "name": "COSMOS 2398", "group": "musson", "lat": 68.89915516653632, "lon": 66.64651691005646, "alt_km": 962.4134261572026, "timestamp": "2025-12-22T16:55:17.732850+00:00", "meta": {"OBJECT_NAME": "COSMOS 2398", "OBJECT_ID": "2003-023A", "EPOCH": "2025-12-22T06:26:14.999424", "MEAN_MOTION": 13.72386723, "ECCENTRICITY": 0.00327155, "INCLINATION": 82.9484, "RA_OF_ASC_NODE": 265.6769, "ARG_OF_PERICENTER": 86.4158, "MEAN_ANOMALY": 26.3083, "EPHEMERIS_TYPE": 0, "CLASSIFICATION_TYPE": "U", "NORAD_CAT_ID": 27818, "ELEMENT_SET_NO": 999, "REV_AT_EPOCH": 12947, "BSTAR": 7.2320183e-05, "MEAN_MOTION_DOT": 8.2e-07, "MEAN_MOTION_DDOT": 0}, "tle": {"line1": "1 27818U 03023A   25356.26822916  .00000082  00000+0  72320-4 0  9998", "line2": "2 27818  82.9484 265.6769 0032715  86.4158  26.3083 13.72386723129471"}}, "geometry": {"type": "Point", "coordinates": [66.64651691005646, 68.89915516653632]}}, {"type": "Feature", "properties": {"norad_id": 28380, "name": "COSMOS 2407", "group": "musson", "lat": 82.17464289896503, "lon": -90.43879090062909, "alt_km": 954.3318437344033, "timestamp": "2025-12-22T16:55:17.732861+00:00", "meta": {"OBJECT_NAME": "COSMOS 2407", "OBJECT_ID": "2004-028A", "EPOCH": "2025-12-22T03:07:00.984864", "MEAN_MOTION": 13.76314712, "ECCENTRICITY": 0.00398955, "INCLINATION": 82.9597, "RA_OF_ASC_NODE": 205.9402, "ARG_OF_PERICENTER": 29.2204, "MEAN_ANOMALY": 88.6556, "EPHEMERIS_TYPE": 0, "CLASSIFICATION_TYPE": "U", "NORAD_CAT_ID": 28380, "ELEMENT_SET_NO": 999, "REV_AT_EPOCH": 7552, "BSTAR": 4.6818085e-05, "MEAN_MOTION_DOT": 6.1e-07, "MEAN_MOTION_DDOT": 0}, "tle": {"line1": "1 28380U 04028A   25356.12987251  .00000061  00000+0  46818-4 0  9998", "line2": "2 28380  82.9597 205.9402 0039895  29.2204  88.6556 13.76314712 75520"}}, "geometry": {"type": "Point", "coordinates": [-90.43879090062909, 82.17464289896503]}}, {"type": "Feature", "properties": {"norad_id": 28521, "name": "COSMOS 2414", "group": "musson", "lat": 43.93970254436258, "lon": -176.02587836402222, "alt_km": 920.6047632781265, "timestamp": "2025-12-22T16:55:17.732872+00:00", "meta": {"OBJECT_NAME": "COSMOS 2414", "OBJECT_ID": "2005-002A", "EPOCH": "2025-12-22T06:19:38.210880", "MEAN_MOTION": 13.87904273, "ECCENTRICITY": 0.00413373, "INCLINATION": 82.9488, "RA_OF_ASC_NODE": 177.458, "ARG_OF_PERICENTER": 113.2391, "MEAN_ANOMALY": 247.3133, "EPHEMERIS_TYPE": 0, "CLASSIFICATION_TYPE": "U", "NORAD_CAT_ID": 28521, "ELEMENT_SET_NO": 999, "REV_AT_EPOCH": 5927, "BSTAR": 5.048429e-05, "MEAN_MOTION_DOT": 7.7e-07, "MEAN_MOTION_DDOT": 0}, "tle": {"line1": "1 28521U 05002A   25356.26363670  .00000077  00000+0  50484-4 0  9997", "line2": "2 28521  82.9488 177.4580 0041337 113.2391 247.3133 13.87904273 59279"}}, "geometry": {"type": "Point", "coordinates": [-176.02587836402222, 43.93970254436258]}}, {"type": "Feature", "properties": {"norad_id": 32052, "name": "COSMOS 2429", "group": "musson", "lat": 79.61688014417649, "lon": 18.213918639906826, "alt_km": 964.8357717495192, "timestamp": "2025-12-22T16:55:17.732882+00:00", "meta": {"OBJECT_NAME": "COSMOS 2429", "OBJECT_ID": "2007-038A", "EPOCH": "2025-12-22T04:18:05.224032", "MEAN_MOTION": 13.75150313, "ECCENTRICITY": 0.00386926, "INCLINATION": 82.9807, "RA_OF_ASC_NODE": 336.3497, "ARG_OF_PERICENTER": 11.929, "MEAN_ANOMALY": 348.2774, "EPHEMERIS_TYPE": 0, "CLASSIFICATION_TYPE": "U", "NORAD_CAT_ID": 32052, "ELEMENT_SET_NO": 999, "REV_AT_EPOCH": 91732, "BSTAR": 3.9121182e-05, "MEAN_MOTION_DOT": 5.3e-07, "MEAN_MOTION_DDOT": 0}, "tle": {"line1": "1 32052U 07038A   25356.17922713  .00000053  00000+0  39121-4 0  9990", "line2": "2 32052  82.9807 336.3497 0038692  11.9290 348.2774 13.75150313917329"}}, "geometry": {"type": "Point", "coordinates": [18.213918639906826, 79.61688014417649]}}, {"type": "Feature", "properties": {"norad_id": 35635, "name": "COSMOS 2454", "group": "musson", "lat": 11.949509991034876, "lon": -20.408944736688216, "alt_km": 937.6722618472468, "timestamp": "2025-12-22T16:55:17.732893+00:00", "meta": {"OBJECT_NAME": "COSMOS 2454", "OBJECT_ID": "2009-039A", "EPOCH": "2025-12-22T04:51:18.199008", "MEAN_MOTION": 13.89929745, "ECCENTRICITY": 0.0020159, "INCLINATION": 82.9557, "RA_OF_ASC_NODE": 161.4717, "ARG_OF_PERICENTER": 48.3472, "MEAN_ANOMALY": 124.9942, "EPHEMERIS_TYPE": 0, "CLASSIFICATION_TYPE": "U", "NORAD_CAT_ID": 35635, "ELEMENT_SET_NO": 999, "REV_AT_EPOCH": 83281, "BSTAR": 3.7724227e-05, "MEAN_MOTION_DOT": 6.2e-07, "MEAN_MOTION_DDOT": 0}, "tle": {"line1": "1 35635U 09039A   25356.20229397  .00000062  00000+0  37724-4 0  9992", "line2": "2 35635  82.9557 161.4717 0020159  48.3472 124.9942 13.89929745832812"}}, "geometry": {"type": "Point", "coordinates": [-20.408944736688216, 11.949509991034876]}}, {"type": "Feature", "properties": {"norad_id": 36519, "name": "COSMOS 2463", "group": "musson", "lat": -82.32701828139402, "lon": -47.121575054167614, "alt_km": 976.1208854461856, "timestamp": "2025-12-22T16:55:17.732904+00:00", "meta": {"OBJECT_NAME": "COSMOS 2463", "OBJECT_ID": "2010-017A", "EPOCH": "2025-12-22T01:40:21.878688", "MEAN_MOTION": 13.71649945, "ECCENTRICITY": 0.00347614, "INCLINATION": 82.9604, "RA_OF_ASC_NODE": 19.8561, "ARG_OF_PERICENTER": 261.2168, "MEAN_ANOMALY": 116.098, "EPHEMERIS_TYPE": 0, "CLASSIFICATION_TYPE": "U", "NORAD_CAT_ID": 36519, "ELEMENT_SET_NO": 999, "REV_AT_EPOCH": 78365, "BSTAR": 3.9923863e-05, "MEAN_MOTION_DOT": 5.1e-07, "MEAN_MOTION_DDOT": 0}, "tle": {"line1": "1 36519U 10017A   25356.06969767  .00000051  00000+0  39924-4 0  9990", "line2": "2 36519  82.9604  19.8561 0034761 261.2168 116.0980 13.71649945783655"}}, "geometry": {"type": "Point", "coordinates": [-47.121575054167614, -82.32701828139402]}}]}